{
  "links" : {
    "next" : "https://api.nasa.gov/neo/rest/v1/feed?start_date=1996-12-09&end_date=1996-12-09&detailed=true&api_key=t0TVs3DtDT2H8Oy2Zy8m2eVrNsAVKAexjcZXUckd",
    "prev" : "https://api.nasa.gov/neo/rest/v1/feed?start_date=1996-12-07&end_date=1996-12-07&detailed=true&api_key=t0TVs3DtDT2H8Oy2Zy8m2eVrNsAVKAexjcZXUckd",
    "self" : "https://api.nasa.gov/neo/rest/v1/feed?start_date=1996-12-08&end_date=1996-12-08&detailed=true&api_key=t0TVs3DtDT2H8Oy2Zy8m2eVrNsAVKAexjcZXUckd"
  },
  "element_count" : 5,
  "near_earth_objects" : {
    "1996-12-08" : [ {
      "links" : {
        "self" : "https://api.nasa.gov/neo/rest/v1/neo/3551168?api_key=t0TVs3DtDT2H8Oy2Zy8m2eVrNsAVKAexjcZXUckd"
      },
      "neo_reference_id" : "3551168",
      "name" : "(2010 VQ98)",
      "nasa_jpl_url" : "http://ssd.jpl.nasa.gov/sbdb.cgi?sstr=3551168",
      "absolute_magnitude_h" : 28.2,
      "estimated_diameter" : {
        "kilometers" : {
          "estimated_diameter_min" : 0.0060891262,
          "estimated_diameter_max" : 0.0136157002
        },
        "meters" : {
          "estimated_diameter_min" : 6.0891262211,
          "estimated_diameter_max" : 13.6157001539
        },
        "miles" : {
          "estimated_diameter_min" : 0.0037836064,
          "estimated_diameter_max" : 0.0084604012
        },
        "feet" : {
          "estimated_diameter_min" : 19.9774488711,
          "estimated_diameter_max" : 44.6709336928
        }
      },
      "is_potentially_hazardous_asteroid" : false,
      "close_approach_data" : [ {
        "close_approach_date" : "1996-12-08",
        "epoch_date_close_approach" : 850032000000,
        "relative_velocity" : {
          "kilometers_per_second" : "3.9000403824",
          "kilometers_per_hour" : "14040.1453764829",
          "miles_per_hour" : "8724.0003312929"
        },
        "miss_distance" : {
          "astronomical" : "0.0944676639",
          "lunar" : "36.74792099",
          "kilometers" : "14132161",
          "miles" : "8781318"
        },
        "orbiting_body" : "Earth"
      } ],
      "orbital_data" : {
        "orbit_id" : "14",
        "orbit_determination_date" : "2017-04-06 08:55:47",
        "orbit_uncertainty" : "4",
        "minimum_orbit_intersection" : ".00510293",
        "jupiter_tisserand_invariant" : "5.972",
        "epoch_osculation" : "2458000.5",
        "eccentricity" : ".02714061853412457",
        "semi_major_axis" : "1.023172313369471",
        "inclination" : "1.475543069475834",
        "ascending_node_longitude" : "46.16888947884351",
        "orbital_period" : "378.0259352800659",
        "perihelion_distance" : ".9954027839176326",
        "perihelion_argument" : "341.7634317144447",
        "aphelion_distance" : "1.05094184282131",
        "perihelion_time" : "2458136.284575147264",
        "mean_anomaly" : "230.6902291854664",
        "mean_motion" : ".9523156122430829",
        "equinox" : "J2000"
      }
    }, {
      "links" : {
        "self" : "https://api.nasa.gov/neo/rest/v1/neo/3579081?api_key=t0TVs3DtDT2H8Oy2Zy8m2eVrNsAVKAexjcZXUckd"
      },
      "neo_reference_id" : "3579081",
      "name" : "(2011 SR69)",
      "nasa_jpl_url" : "http://ssd.jpl.nasa.gov/sbdb.cgi?sstr=3579081",
      "absolute_magnitude_h" : 20.1,
      "estimated_diameter" : {
        "kilometers" : {
          "estimated_diameter_min" : 0.2538370294,
          "estimated_diameter_max" : 0.5675968529
        },
        "meters" : {
          "estimated_diameter_min" : 253.8370293645,
          "estimated_diameter_max" : 567.5968528656
        },
        "miles" : {
          "estimated_diameter_min" : 0.1577269688,
          "estimated_diameter_max" : 0.3526882241
        },
        "feet" : {
          "estimated_diameter_min" : 832.7986794202,
          "estimated_diameter_max" : 1862.1944587557
        }
      },
      "is_potentially_hazardous_asteroid" : false,
      "close_approach_data" : [ {
        "close_approach_date" : "1996-12-08",
        "epoch_date_close_approach" : 850032000000,
        "relative_velocity" : {
          "kilometers_per_second" : "6.2758317729",
          "kilometers_per_hour" : "22592.9943823069",
          "miles_per_hour" : "14038.4080927173"
        },
        "miss_distance" : {
          "astronomical" : "0.1423737382",
          "lunar" : "55.3833847046",
          "kilometers" : "21298808",
          "miles" : "13234466"
        },
        "orbiting_body" : "Earth"
      } ],
      "orbital_data" : {
        "orbit_id" : "84",
        "orbit_determination_date" : "2017-04-06 08:52:42",
        "orbit_uncertainty" : "0",
        "minimum_orbit_intersection" : ".108953",
        "jupiter_tisserand_invariant" : "3.292",
        "epoch_osculation" : "2458000.5",
        "eccentricity" : ".5492398315651376",
        "semi_major_axis" : "2.408200061933614",
        "inclination" : "5.841503075896216",
        "ascending_node_longitude" : "227.4017921353137",
        "orbital_period" : "1365.014521919459",
        "perihelion_distance" : "1.085520665542042",
        "perihelion_argument" : "206.8436531521558",
        "aphelion_distance" : "3.730879458325186",
        "perihelion_time" : "2458631.806822714239",
        "mean_anomaly" : "193.5032686263715",
        "mean_motion" : ".2637334579369708",
        "equinox" : "J2000"
      }
    }, {
      "links" : {
        "self" : "https://api.nasa.gov/neo/rest/v1/neo/3655869?api_key=t0TVs3DtDT2H8Oy2Zy8m2eVrNsAVKAexjcZXUckd"
      },
      "neo_reference_id" : "3655869",
      "name" : "(2014 AW32)",
      "nasa_jpl_url" : "http://ssd.jpl.nasa.gov/sbdb.cgi?sstr=3655869",
      "absolute_magnitude_h" : 27.5,
      "estimated_diameter" : {
        "kilometers" : {
          "estimated_diameter_min" : 0.008405334,
          "estimated_diameter_max" : 0.0187948982
        },
        "meters" : {
          "estimated_diameter_min" : 8.4053340207,
          "estimated_diameter_max" : 18.7948982439
        },
        "miles" : {
          "estimated_diameter_min" : 0.0052228308,
          "estimated_diameter_max" : 0.0116786047
        },
        "feet" : {
          "estimated_diameter_min" : 27.5765560686,
          "estimated_diameter_max" : 61.6630539546
        }
      },
      "is_potentially_hazardous_asteroid" : false,
      "close_approach_data" : [ {
        "close_approach_date" : "1996-12-08",
        "epoch_date_close_approach" : 850032000000,
        "relative_velocity" : {
          "kilometers_per_second" : "9.0215003446",
          "kilometers_per_hour" : "32477.4012406669",
          "miles_per_hour" : "20180.1941209022"
        },
        "miss_distance" : {
          "astronomical" : "0.3980618038",
          "lunar" : "154.8460388184",
          "kilometers" : "59549200",
          "miles" : "37002156"
        },
        "orbiting_body" : "Earth"
      } ],
      "orbital_data" : {
        "orbit_id" : "6",
        "orbit_determination_date" : "2017-04-06 08:42:57",
        "orbit_uncertainty" : "6",
        "minimum_orbit_intersection" : ".00196446",
        "jupiter_tisserand_invariant" : "5.818",
        "epoch_osculation" : "2458000.5",
        "eccentricity" : ".2587352524863429",
        "semi_major_axis" : "1.041760803590794",
        "inclination" : "17.83523236683973",
        "ascending_node_longitude" : "290.1799253083974",
        "orbital_period" : "388.3742668083705",
        "perihelion_distance" : ".7722205590433545",
        "perihelion_argument" : "272.8453849897361",
        "aphelion_distance" : "1.311301048138234",
        "perihelion_time" : "2457901.771833555107",
        "mean_anomaly" : "91.51517738866647",
        "mean_motion" : ".9269409195373627",
        "equinox" : "J2000"
      }
    } ]
  }
}